[{"OBJECT_NAME":"ERNST","OBJECT_ID":"2024-149BN","EPOCH":"2026-03-09T19:27:38.265120","MEAN_MOTION":15.36382433,"ECCENTRICITY":0.00049076,"INCLINATION":97.3842,"RA_OF_ASC_NODE":151.9807,"ARG_OF_PERICENTER":295.1196,"MEAN_ANOMALY":64.9538,"EPHEMERIS_TYPE":0,"CLASSIFICATION_TYPE":"U","NORAD_CAT_ID":60528,"ELEMENT_SET_NO":999,"REV_AT_EPOCH":8700,"BSTAR":0.00049130979,"MEAN_MOTION_DOT":0.00017377,"MEAN_MOTION_DDOT":0},{"OBJECT_NAME":"SPACEMOBILE-003 DEB","OBJECT_ID":"2024-163H","EPOCH":"2026-03-09T06:41:58.685280","MEAN_MOTION":15.36819258,"ECCENTRICITY":0.00083408,"INCLINATION":52.9732,"RA_OF_ASC_NODE":23.5908,"ARG_OF_PERICENTER":178.9597,"MEAN_ANOMALY":181.1423,"EPHEMERIS_TYPE":0,"CLASSIFICATION_TYPE":"U","NORAD_CAT_ID":62371,"ELEMENT_SET_NO":999,"REV_AT_EPOCH":7650,"BSTAR":0.00066898372,"MEAN_MOTION_DOT":0.00024141,"MEAN_MOTION_DDOT":0}]
